[{"OBJECT_NAME":"STARLINK-4464","OBJECT_ID":"2022-105X","EPOCH":"2026-03-09T14:51:26.225856","MEAN_MOTION":15.01264858,"ECCENTRICITY":0.0001935,"INCLINATION":97.6047,"RA_OF_ASC_NODE":310.1336,"ARG_OF_PERICENTER":87.5049,"MEAN_ANOMALY":272.6397,"EPHEMERIS_TYPE":0,"CLASSIFICATION_TYPE":"U","NORAD_CAT_ID":53669,"ELEMENT_SET_NO":999,"REV_AT_EPOCH":19322,"BSTAR":8.3915e-5,"MEAN_MOTION_DOT":1.02e-5,"MEAN_MOTION_DDOT":0},{"OBJECT_NAME":"COSMOS 397 DEB","OBJECT_ID":"1971-015AJ","EPOCH":"2026-03-09T18:29:11.550048","MEAN_MOTION":14.57731986,"ECCENTRICITY":0.02840491,"INCLINATION":65.3533,"RA_OF_ASC_NODE":250.7757,"ARG_OF_PERICENTER":34.5343,"MEAN_ANOMALY":327.3849,"EPHEMERIS_TYPE":0,"CLASSIFICATION_TYPE":"U","NORAD_CAT_ID":5155,"ELEMENT_SET_NO":999,"REV_AT_EPOCH":73323,"BSTAR":0.001223321,"MEAN_MOTION_DOT":9.675e-5,"MEAN_MOTION_DDOT":0}]
